C/2020 F5 (MASTER),e,52.2441,350.5672,310.5670,161.9469,0.0004782,0.97329873,0.0000,03/15.8411/2021,2000,g  6.5,3.2
# From MPEC 2024-A43
C/2020 F7 (Lemmon),e,93.9951,321.8116,228.0106,594.3864,0.0000680,0.99102175,0.0000,11/14.1871/2021,2000,g  7.0,4.0
# From MPC184409
C/2020 H5 (Robinson),e,70.2117,210.6025,326.2661,7109,0.0000016,0.99868695,0.0000,12/10.1052/2020,2000,g  5.0,4.0
# From MPEC 2024-JU4
C/2020 H6 (ATLAS),e,80.0016,213.6702,20.1737,1783,0.0000131,0.99736579,0.0000,09/29.3605/2021,2000,g  8.0,3.2
# From MPEC 2023-HN7
C/2020 H11 (PANSTARRS-Lemmon),e,151.3686,303.0584,91.3483,6642,0.0000018,0.99885260,0.0000,09/11.6019/2020,2000,g  8.5,4.0
# From MPEC 2023-KD6
C/2020 J1 (SONEAR),e,142.3100,226.5609,341.5259,4528,0.0000032,0.99926152,0.0000,04/17.6019/2021,2000,g  8.5,3.2
# From MPEC 2026-A90
C/2020 K1 (PANSTARRS),e,89.6705,94.3672,213.9566,1721,0.0000138,0.99821401,0.0000,05/08.4181/2023,2000,g  5.5,4.0
# From MPEC 2021-N06
C/2020 K2 (PANSTARRS),e,90.9851,288.4369,67.2887,743924,0.0000000,0.99998806,0.0000,08/03.3867/2020,2000,g  6.5,4.0
# From MPEC 2023-N01
C/2020 K6 (Rankin),h,09/14.0666/2021,103.6267,291.6037,44.2470,1.001386,5.864963,2000,8.0,4.0
# From MPEC 2023-A50
C/2020 K7 (PANSTARRS),e,32.0442,286.1347,358.0159,93.77415,0.0010854,0.93192865,2.5077,02/20.0/2026,2000,g  8.0,4.0
# From MPEC 2021-BE3
P/2020 K9 (Lemmon-PANSTARRS),e,23.1854,166.3049,197.0694,4.208449,0.1141618,0.31982469,209.5843,02/20.0/2026,2000,g 12.5,4.0
# From MPEC 2023-N01
A/2020 M4,e,160.0946,348.6063,104.4332,6296,0.0000020,0.99905674,0.0000,11/22.0378/2020,2000,g 14.5,2.0
# From MPEC 2024-NE4
P/2020 MK4 (PANSTARRS),e,6.7807,0.6542,94.6250,6.226063,0.0634430,0.01565677,332.1879,02/20.0/2026,2000,g  8.0,4.0
# From MPEC 2023-FK0
C/2020 M5 (ATLAS),h,08/19.5853/2021,93.1596,351.9861,126.2501,1.000055,3.000812,2000,9.0,4.0
# From MPEC 2024-JU4
C/2020 O2 (Amaral),e,71.7656,256.7818,10.1298,5485,0.0000024,0.99911518,0.0000,08/26.8916/2021,2000,g  8.0,3.2
# From MPEC 2023-C45
P/2020 O3 (PANSTARRS),e,8.4443,266.8149,81.0338,4.645921,0.0984230,0.10242512,182.4737,02/20.0/2026,2000,g 12.0,4.0
# From MPEC 2024-JU4
C/2020 P3 (ATLAS),h,04/23.2087/2021,61.8346,19.4902,82.3730,1.003944,6.818208,2000,6.0,4.0
# From MPEC 2020-QN1
C/2020 P4-B (SOHO),h,08/07.6902/2020,26.8824,171.7595,173.3811,1.000557,0.102252,2000,0.0,6.0
# From MPEC 2020-QN1
C/2020 P4-C (SOHO),h,08/05.3591/2020,37.2587,165.3390,115.9264,1.013259,0.089527,2000,-1.6,6.0
# From MPEC 2022-PB4
C/2020 PV6 (PANSTARRS),e,128.1342,329.1178,71.2523,41.45889,0.0036921,0.94474713,5.9392,02/20.0/2026,2000,g 10.0,4.0
# From MPEC 2023-CD7
C/2020 Q2 (PANSTARRS),e,3.3364,179.8443,118.1151,10.59203,0.0285914,0.48850571,63.4605,02/20.0/2026,2000,g 12.0,3.2
# From MPEC 2024-F34
C/2020 R2 (PANSTARRS),e,53.2041,195.1446,211.8938,425.9349,0.0001121,0.98896194,0.0000,02/25.2075/2022,2000,g  9.0,4.0
# From MPEC 2023-C45
P/2020 R5 (PANSTARRS),e,11.4394,272.9377,82.7223,4.994529,0.0883003,0.31278997,185.0765,02/20.0/2026,2000,g  9.5,6.0
# From MPEC 2024-PC5
C/2020 R7 (ATLAS),e,114.9039,268.3060,347.7165,4328,0.0000035,0.99931848,0.0000,09/15.8862/2022,2000,g  7.0,3.2
# From MPEC 2024-N80
C/2020 S4 (PANSTARRS),h,02/09.7863/2023,20.5718,117.6752,21.0952,1.003120,3.371573,2000,8.5,3.2
# From MPEC 2021-BE3
P/2020 S5 (PANSTARRS),e,12.3397,316.0096,53.2585,4.059576,0.1204989,0.33701603,243.7673,02/20.0/2026,2000,g 14.5,4.0
# From MPEC 2022-TD3
C/2020 T2 (Palomar),e,27.8428,83.0076,150.3168,263.9338,0.0002299,0.99223682,0.0000,07/10.6735/2021,2000,g 11.0,3.2
# From MPEC 2024-TD8
C/2020 U4 (PANSTARRS),h,04/10.3826/2022,167.0039,120.4048,70.1999,1.001692,5.363068,2000,7.0,4.0
# From MPEC 2024-GJ3
C/2020 U5 (PANSTARRS),e,97.3163,107.3132,75.4707,103920,0.0000000,0.99996385,0.0000,04/28.6799/2022,2000,g  8.0,4.0
# From MPC188409
C/2020 V2 (ZTF),h,05/08.6158/2023,131.6081,212.4273,162.4914,1.001217,2.229755,2000,4.9,4.0
# From MPEC 2023-D72
P/2020 V3 (PANSTARRS),e,23.0139,198.2726,249.9322,8.412757,0.0403921,0.25777152,73.8748,02/20.0/2026,2000,g  8.3,4.0
# From MPC188409
P/2020 V4 (Rankin),e,14.2317,203.4876,257.3366,9.404854,0.0341724,0.45160201,57.2283,02/20.0/2026,2000,g  9.0,4.0
# From MPEC 2021-BE3
P/2020 W1 (Rankin),e,10.7761,124.3821,265.4167,7.227275,0.0507274,0.26500681,108.6949,02/20.0/2026,2000,g 10.0,4.0
# From MPEC 2024-PC5
P/2020 WJ5 (Lemmon),e,22.2895,177.7448,338.1500,6.016021,0.0667944,0.17231738,113.1851,02/20.0/2026,2000,g  8.5,4.0
# From MPEC 2024-F34
P/2020 X1 (ATLAS),e,31.6855,55.9938,323.5159,4.537499,0.1019716,0.36401280,208.2132,02/20.0/2026,2000,g 13.0,4.0
# From MPEC 2024-A43
C/2020 X2 (ATLAS),e,18.1871,105.3512,347.6316,16.56286,0.0146218,0.76838433,28.0840,02/20.0/2026,2000,g 10.6,4.0
# From MPEC 2021-S45
C/2020 X4 (Leonard),e,80.6700,161.9788,140.2581,40.51584,0.0038218,0.87111486,7.3484,02/20.0/2026,2000,g  9.0,4.0
# From MPC181179
C/2020 Y2 (ATLAS),e,101.2448,26.5509,266.4189,1196,0.0000238,0.99736784,0.0000,06/17.5803/2022,2000,g  6.5,4.0
# From MPC181179
C/2021 A1 (Leonard),h,01/04.1409/2022,132.7310,255.8997,225.1110,1.000281,0.614266,2000,8.5,4.0
# From MPC181180
P/2021 A5 (PANSTARRS),e,18.1849,328.6830,62.1588,3.051964,0.1848566,0.14098500,354.9309,02/20.0/2026,2000,g 15.0,4.0
# From MPEC 2024-P23
C/2021 A6 (PANSTARRS),e,75.5548,164.0052,351.6546,19496,0.0000004,0.99959342,0.0000,05/03.4245/2021,2000,g  7.0,4.0
# From MPEC 2022-M88
C/2021 A7 (NEOWISE),e,78.2455,154.3692,356.0267,2070,0.0000105,0.99904999,0.0000,07/15.2180/2021,2000,g 10.0,4.0
# From MPEC 2025-X35
C/2021 A9 (PANSTARRS),e,158.0177,314.8500,211.6774,45859,0.0000001,0.99983065,0.0000,12/04.5236/2023,2000,g  6.0,4.0
# From MPEC 2021-U31
P/2021 C2 (PANSTARRS),e,21.9334,66.4521,78.7636,9.550899,0.0333916,0.48861928,60.7951,02/20.0/2026,2000,g 12.0,4.0
# From MPEC 2025-UQ3
C/2021 C4 (ATLAS),e,132.8230,194.2001,319.9805,2777,0.0000067,0.99838203,0.0000,01/15.6846/2021,2000,g  9.0,4.0
# From MPEC 2024-N80
C/2021 C5 (PANSTARRS),e,50.8076,323.6753,270.8656,1683,0.0000143,0.99807542,0.0000,02/11.0298/2023,2000,g  9.0,4.0
# From MPEC 2026-A90
C/2021 D2 (ZTF),h,02/03.3702/2022,83.7644,305.6134,125.0994,1.001380,2.952398,2000,9.0,4.0
# From MPEC 2022-UY9
A/2021 E2,e,167.4979,190.7102,342.1823,196.2584,0.0003585,0.98835897,0.0000,12/08.2531/2020,2000,g 15.0,2.0
# From MPEC 2024-GJ3
C/2021 E3 (ZTF),e,112.5205,104.4839,228.7805,3517,0.0000047,0.99949456,0.0000,06/10.6042/2022,2000,g  8.5,4.0
# From MPEC 2024-N80
A/2021 E4,e,116.3979,171.1278,48.3095,510.5203,0.0000854,0.99082810,0.0000,04/24.8803/2022,2000,g 13.5,2.0
# From MPEC 2026-A24
C/2021 G2 (ATLAS),h,09/09.1537/2024,48.4597,221.0892,343.2669,1.001024,4.982041,2000,5.5,4.0
# From MPEC 2022-X67
C/2021 G3 (PANSTARRS),e,102.8780,147.3260,10.6277,12485,0.0000007,0.99958469,0.0000,10/17.9704/2021,2000,g 10.5,4.0
# From MPEC 2024-F34
P/2021 J3 (ATLAS),e,14.5113,110.9223,125.5480,8.878971,0.0372529,0.44984105,90.4167,02/20.0/2026,2000,g  7.0,4.0
# From MPEC 2022-O08
C/2021 K1 (ATLAS),e,16.2684,140.9316,184.1929,12.58558,0.0220747,0.80112093,38.7536,02/20.0/2026,2000,g 11.0,4.0
# From MPEC 2022-O01
C/2021 K2 (MASTER),h,09/08.9480/2021,100.8720,282.3401,343.2273,1.000090,5.459754,2000,8.0,4.0
# From MPEC 2022-L66
C/2021 K3 (Catalina),h,02/03.3218/2022,134.7803,114.6163,181.9714,1.003781,5.224297,2000,10.0,4.0
# From MPEC 2024-H50
C/2021 L3 (Borisov),h,02/14.9404/2022,78.5220,345.0254,91.6606,1.004211,8.461784,2000,6.0,4.0
# From MPEC 2022-TA0
P/2021 N1 (ZTF),e,11.4853,301.1317,21.2157,2.980487,0.1915460,0.67573874,329.7675,02/20.0/2026,2000,g 19.0,4.0
# From MPEC 2024-GJ3
P/2021 N2 (Fuls),e,13.0584,221.7535,177.6490,6.947856,0.0538180,0.45177709,83.9196,02/20.0/2026,2000,g  9.5,4.0
# From MPEC 2022-YB4
C/2021 N3 (PANSTARRS),e,26.7711,337.5420,304.5228,138.3172,0.0006059,0.95873601,1.2201,02/20.0/2026,2000,g  8.5,4.0
# From MPEC 2024-F34
C/2021 P1 (PANSTARRS),e,51.6078,359.7259,40.5303,2342,0.0000087,0.99812898,0.0000,06/02.3292/2022,2000,g 11.0,4.0
# From MPC185656
C/2021 P2 (PANSTARRS),e,150.0461,32.1018,76.6945,12037,0.0000007,0.99957912,0.0000,01/22.9947/2023,2000,g  9.0,4.0
# From MPEC 2024-GJ3
P/2021 P3 (PANSTARRS),e,27.1644,358.2432,333.9483,4.411666,0.1063653,0.33846669,183.9629,02/20.0/2026,2000,g 14.0,4.0
# From MPEC 2023-A50
C/2021 P4 (ATLAS),e,56.4107,347.9715,175.8273,299.6897,0.0001900,0.99640177,0.0000,07/30.5508/2022,2000,g  9.5,4.0
# From MPEC 2023-FK0
C/2021 Q3 (ATLAS),e,77.7074,307.9048,114.1626,74.65524,0.0015280,0.93019276,2.2710,02/20.0/2026,2000,g  8.0,4.0
# From MPC188409
C/2021 Q4 (Fuls),h,06/10.2030/2023,71.5543,183.3365,147.0093,1.000407,7.563430,2000,6.0,4.0
# From MPC181180
P/2021 Q5 (ATLAS),e,10.7378,239.7315,180.9727,3.284219,0.1655983,0.62418713,270.4780,02/20.0/2026,2000,g 15.0,4.0
# From MPC188409
C/2021 Q6 (PANSTARRS),h,03/25.3040/2024,161.8275,133.5734,141.0619,1.003468,8.707403,2000,6.0,4.0
# From MPEC 2023-FK0
C/2021 QM45 (PANSTARRS),e,22.7868,354.5909,72.9647,413.5639,0.0001172,0.99327578,0.0000,08/13.5533/2022,2000,g 11.0,4.0
# From MPEC 2022-X67
P/2021 R1 (PANSTARRS),e,5.5407,143.0529,219.9600,8.235551,0.0417028,0.40649838,64.1286,02/20.0/2026,2000,g 11.0,4.0
# From MPEC 2022-X67
C/2021 R2 (PANSTARRS),e,134.4780,16.3601,32.5620,19474,0.0000004,0.99962435,0.0000,12/28.6082/2021,2000,g  7.5,4.0
# From MPEC 2021-W31
P/2021 R3 (PANSTARRS),e,19.9453,304.1986,2.5739,3.767782,0.1347645,0.33221796,233.3786,02/20.0/2026,2000,g 16.0,4.0
# From MPEC 2024-JU4
P/2021 R5 (Rankin),e,7.8528,219.9687,167.6095,4.799085,0.0937489,0.30557819,140.6463,02/20.0/2026,2000,g 12.0,4.0
# From MPEC 2022-X67
C/2021 R7 (PANSTARRS),e,158.8810,170.2247,140.4363,1093,0.0000273,0.99482847,0.0000,04/17.8221/2021,2000,g 10.5,4.0
# From MPEC 2021-Y10
P/2021 R8 (Sheppard),e,2.2026,167.0560,190.7997,3.020667,0.1877370,0.29240480,299.9629,02/20.0/2026,2000,g 18.5,4.0
# From MPEC 2023-J29
C/2021 S1 (ATLAS),h,03/02.1675/2022,52.0334,299.8494,148.3543,1.002965,6.128773,2000,7.0,4.0
# From MPEC 2026-A24
